#dP2020  1  5  0  0  0.00000000      96 __u+U ITR00 FIT  IAC
## 2087      0.00000000   900.00000000 58853 0.0000000000000
+  114   C01C03C04C05C06C07C08C09C10C11C12C13C14C16C18C19C20
+        C21C22C23C24C25C26C27C28C29C30C32C33C34C35C36C37E01
+        E02E03E04E05E07E08E09E11E12E13E14E15E18E19E21E24E25
+        E26E27E30E31E33E36G01G02G03G04G05G06G07G08G09G10G11
+        G12G13G14G15G16G17G18G19G20G21G22G23G24G25G26G27G28
+        G29G30G31G32J01J02J03R01R02R03R04R05R07R08R09R11R12
+        R13R14R15R16R17R18R19R20R21R22R23R26  0  0  0  0  0
++        13 13 13 13  8  9  8  8  8  8  7  8  7  8 15  8  8
++         8  8  7  8  8  8  8  8  8  8  8  8  8  8  8  8  4
++         4  4  5  4  4  4  4  4  4  4  4  4  4  4  4  4  4
++         4  4  4  4  4  4  3  3  3  4  3  3  3  3  3  3  3
++         3  3  3  3  3  3  4  3  3  3  3  3  3  3  3  3  3
++         3  3  3  3  8  8  8  6  5  6  6  5  5  5  5  5  5
++         6  5  5  6  5  5  6  6  5  5  5  8  0  0  0  0  0
%c M  cc GPS ccc cccc cccc cccc cccc ccccc ccccc ccccc ccccc
%c cc cc ccc ccc cccc cccc cccc cccc ccccc ccccc ccccc ccccc
%f  0.0000000  0.000000000  0.00000000000  0.000000000000000
%f  0.0000000  0.000000000  0.00000000000  0.000000000000000
%i    0    0    0    0      0      0      0      0         0
%i    0    0    0    0      0      0      0      0         0
/* INFORMATION & ANALYSIS CENTER (IAC)            RAPID DATA
/* S/V CLOCKS ARE ALIGNED TO GNSS TIME                      
/* G:C1WC2W R:C1PC2P E:C1XC5X C:C2IC6I J:C1CC2S             
/* PCV:IGS14_2082 OL/AL:FES2004  NONE     YN ORB:CoN CLK:CoN
*  2020 01 05 21 15  0.00000000
PC01 -32283.467085  27110.148910   -178.509584    346.189513
PC03 -14872.009301  39463.392387    785.875856    406.492333
PC04 -39581.444410  14447.441759     73.003534   -430.959643
PC05  21894.965597  36045.714034   1085.133211   -136.981819
PC06 -20597.861388  36985.467621  -1825.445505    267.223948
PC07  -8005.133140  29261.371289 -28930.830733    118.781087
PC08 -18454.567046  19565.189251  32480.172756    -75.050421
PC09 -11138.102137  37567.040044 -15807.150895    240.190084
PC10   5383.523799  36376.141467 -20072.835921   -531.723920
PC11 -14141.736669  21469.439223  10851.227328   -103.544837
PC12 -23117.945163  13705.804848  -7413.058197    307.242944
PC13  -3120.732240  23093.316549  35209.246462    191.733474
PC14  -4043.090432  24451.541827  12799.572319    404.446887
PC16 -18567.384946  37742.935188  -4124.758179   -870.078789
PC18   7317.033347  41527.443023   -468.400645      8.834426
PC19  -2642.144118 -27428.012646  -4429.129378    289.997898
PC20   9533.108536 -18274.927839 -18812.454334   -516.119285
PC21 -16438.740315  -2126.649518  22462.920437     45.913085
PC22 -13454.714367 -20851.758036  12787.285944   -630.153264
PC23  21368.091578  14916.557402  -9988.845938   -870.094523
PC24 -16579.471106   9500.301494 -20333.144588   -894.929680
PC25   4252.240163  17299.210198 -21488.690139   -471.504673
PC26 -26639.664298  -2704.567472  -7801.181623    523.192854
PC27  22772.365757  -5686.852225  15071.227019    255.397303
PC28  11699.564368  10860.457510  22897.925752    246.377324
PC29   5359.210696 -21226.678161 -17303.773171    169.697303
PC30  19910.800011 -19495.295538  -1284.075472    251.561638
PC32  16456.337832   1990.890001 -22440.515401   -854.912083
PC33   2696.533917  27398.082370   4520.954095   -750.197970
PC34 -19798.923211  19613.559136   1660.889152   -367.735301
PC35 -12011.426074 -10579.799350 -22853.508301   -735.622625
PC36  -3595.817381 -17359.415240  21574.479946   -854.079879
PC37  26696.973698   3743.847032   7267.156483   -930.410504
PE01  12679.487051  23426.554772 -12913.270877   -767.490852
PE02 -12724.778455 -23419.041928  12859.919485    103.725061
PE03  -2259.056585 -27164.961508  11546.700385   -251.837222
PE04  14117.976868  11971.385076 -23101.112021   -439.624459
PE05  11046.195676 -26584.101983  -6895.280454   -416.593393
PE07 -17811.631345  10472.992468  21190.777312   -322.748368
PE08 -14140.462293 -11656.381873  23242.473814   6238.942660
PE09  17610.365590 -10720.774565 -21246.817025   6198.161450
PE11  28338.443666  -8481.654172    891.295173    666.908836
PE12  22524.766116   5541.052473  18390.151931   6015.889619
PE13 -28337.102314   8483.950966  -1096.209471    397.088476
PE14  17367.144750  -2146.823099  16235.587436   -857.141528
PE15 -22709.699607  -5198.792615 -18244.232266    881.851317
PE18 -21115.380873  -4162.036465 -24064.686329   -953.541852
PE19    745.623151  27937.573421  -9762.491517     -2.095686
PE21  -5660.792555  16421.813747 -23968.460797   -575.373764
PE24  20901.354666    377.617468  20957.646324   5678.382706
PE25   5769.287705 -16348.336629  23998.201020   -500.365313
PE26 -17190.881972  17246.241795  16835.403561   3680.400061
PE27 -20849.737194   -256.186446 -21000.276528    309.846091
PE30 -23633.233768 -16899.884813  -5620.732423   4247.973305
PE31  23751.435252  16717.368798   5728.557029   -471.200045
PE33   3742.971503  15860.283241  24723.950190   -471.125960
PE36  17361.276493 -17194.959956 -16693.768464    615.071447
PG01 -11002.152872 -13650.249887 -20252.800783   -253.057013
PG02 -13139.341984  14193.020990  18793.622300   -380.325083
PG03 -13315.790775 -23038.558368   -134.882627    -66.521721
PG04  -4280.463225 -18241.821057  18823.289756    -30.172663
PG05  -2086.717233  19885.782957  17248.901845     -5.690116
PG06 -23765.055384   6766.424508   9838.354501   -174.150277
PG07 -24581.211801  -6445.985526   8808.131693   -185.707522
PG08   3703.611961 -23387.912128 -11752.966512    -19.232255
PG09 -12512.536546  -9068.729282  21543.696778   -125.667526
PG10  17129.753322   1481.903804 -20234.023887   -198.872976
PG11  -5842.662645 -15496.668853 -21260.136062   -398.550899
PG12   9176.314687  24725.975929  -4076.830819    165.489272
PG13 -12179.964836  22861.241397  -5806.312413    -21.928480
PG14  18111.639402 -17848.373790  -7004.763911    -40.548518
PG15   -288.818144  23467.830150 -12362.396807   -260.651574
PG16   4459.581578 -18700.675105  17922.371888   -110.509662
PG17 -18708.440107   9615.642525 -15749.601972    193.496766
PG18  -1774.006806 -15448.670231 -22040.212134    111.509787
PG19 -19341.358360  15202.277257 -10318.405574   -216.496272
PG20  20592.458287  10531.078865 -13328.236526    527.754804
PG21  25351.235193   3560.046956   7398.447340    -60.076008
PG22  -9349.228575 -23592.555220  -7801.074439   -780.829378
PG23  -6855.848861 -16983.788080  19454.796122   -144.994657
PG24   9186.270923  14531.083751 -20512.129727     -7.191139
PG25  17217.329882  18673.975389   7998.405945    -16.559428
PG26  11003.431195 -11261.156241  21346.905431    121.111916
PG27  12121.744119 -23390.733579  -1534.570765   -172.370832
PG28 -15888.075130  -1318.796520 -20620.040780    746.878618
PG29  11049.683832   9777.690009  22053.883187     -0.034468
PG30 -26534.157464    937.152189  -2477.859835   -122.488931
PG31  22750.118425  -7745.104584  11774.296070    -14.605906
PG32  18575.015671 -10530.990688 -15647.099556    176.619523
PJ01 -26113.222475  25658.230947  25926.644849   -325.993836
PJ02 -25721.634023  15254.491136 -25275.606536     -0.624916
PJ03 -25723.800073  33440.309850   1642.439276    -11.856887
PR01   9685.698122 -11153.190641 -20803.759413     55.197293
PR02   1807.791963 -25015.355903  -4452.488169    405.841613
PR03  -6412.345641 -21145.963915  12733.080569      7.717115
PR04 -10701.521281  -5271.624997  22565.049031     34.428396
PR05  -9003.919012  13625.021049  19606.692189     42.570879
PR07   6558.729661  20889.573119 -13095.445019    -31.635678
PR08  10777.444668   5370.038677 -22443.243262     13.280942
PR09   5071.789784  14249.036730 -20508.212903    109.891875
PR11  22789.149471   8249.965309   7902.660434     14.173672
PR12  14931.260045  -2814.043911  20523.739338     94.289392
PR13  -2202.504003 -12956.452742  21844.196897    -33.151269
PR14 -17557.444282 -15401.765879  10277.026027     46.788133
PR15 -22825.150738  -8923.005247  -7042.222690    105.624694
PR16 -14529.898925   3563.142262 -20645.585932     -0.817074
PR17  -5639.631327  -8975.601369 -23184.508787    289.904998
PR18 -19081.830187   2455.992364 -16756.821380     20.515974
PR19 -22560.275138  11784.230125  -1637.770630    -72.549127
PR20 -12065.131951  15209.346402  16585.098122   -400.750325
PR21   6452.635648   8399.130882  23213.649539    -96.359889
PR22  20377.858636  -4255.170529  14667.347164     -8.546541
PR23  20501.703093 -14431.017485  -4704.317610    277.893190
PR26 -14856.617057  15734.120989  13498.636267   -413.089324
EOF
